INTELSAT 22 (IS-22)     
1 38098U 12011A   17345.57606564 -.00000065  00000-0  00000-0 0  9994
2 38098   0.0194  11.0592 0002481 250.1470  98.7709  1.00269893 20668
